{"type":"FeatureCollection","features":[{"type":"Feature","properties":{},"geometry":{"coordinates":[[-82.615477083672,35.20921719177862],[-82.61491529171427,35.20942583393344],[-82.61486421971846,35.20988484478728],[-82.61440457175239,35.210093485227034],[-82.61394492378705,35.20942583393344],[-82.61338313182932,35.208758177150386],[-82.61231061990969,35.20854953327927],[-82.61261705188684,35.20750630588354],[-82.61164668395962,35.20784014010856],[-82.61052310004341,35.20771495243531],[-82.60934844413141,35.20784014010856],[-82.60888879616608,35.20804878580253],[-82.60919522814324,35.20888336321521],[-82.60873558017786,35.20959274727156],[-82.60853129219312,35.2102186692331],[-82.60893986816264,35.21055249230638],[-82.60873558017786,35.211261861779505],[-82.6069480603116,35.211553953290306],[-82.60710127630054,35.211011496790704],[-82.60710127630054,35.21046903666675],[-82.60750985226932,35.20971793204967],[-82.60679484432337,35.209676203811924],[-82.60674377232682,35.20842434669977],[-82.60577340439959,35.20721419981108],[-82.60505839645367,35.206671714316926],[-82.604343388507,35.20496077478818],[-82.60556911641481,35.20491904410511],[-82.60628412436148,35.204376543277974],[-82.6063351963573,35.20358365093442],[-82.60541590042664,35.20299940951695],[-82.60521161244186,35.202373431905826],[-82.60567126040719,35.20153878758592],[-82.60648841234625,35.200912798716885],[-82.60730556428456,35.20082933316971],[-82.60822486021596,35.2000364061944],[-82.60924630013902,35.19945213925901],[-82.61052310004341,35.19932693865492],[-82.61139132397828,35.198909601913115],[-82.61225954791314,35.19820012453127],[-82.61307669985217,35.19832532687224],[-82.6136384918099,35.19882613430745],[-82.61440457175239,35.19936867221081],[-82.61491529171427,35.198784400472164],[-82.6152217236914,35.19820012453127],[-82.61450671574475,35.19790798498475],[-82.61368956380645,35.19790798498475],[-82.61271919587921,35.19778278199993],[-82.61231061990969,35.19736543732432],[-82.61149346797066,35.19753237545187],[-82.61082953202055,35.19803318777603],[-82.61016559607046,35.19820012453127],[-82.61016559607046,35.19728196813185],[-82.61072738802818,35.1967394162907],[-82.6099613080857,35.19636380135495],[-82.60934844413141,35.196530741540926],[-82.60817378822014,35.19719849885426],[-82.6076119962617,35.19719849885426],[-82.60587554839196,35.19769931323633],[-82.60597769238434,35.198784400472164],[-82.60546697242245,35.198867868120715],[-82.60459874848758,35.19882613430745],[-82.60388374054166,35.19936867221081],[-82.60362838056035,35.20062066892635],[-82.60204514867955,35.20116319484299],[-82.60178978869826,35.20183091407351],[-82.60276015662548,35.20316633606511],[-82.60321980459155,35.204042694813566],[-82.60240265265251,35.205419810883],[-82.601994076683,35.20637960524218],[-82.60092156476337,35.20696382234091],[-82.60035977280565,35.207798410905795],[-82.59678473307382,35.20921719177862],[-82.5951504291965,35.21042730881443],[-82.59423113326505,35.21046903666675],[-82.59463970923458,35.211553953290306],[-82.59555900516601,35.212263314013384],[-82.59550793316946,35.213223027479216],[-82.59606972512717,35.21439135899405],[-82.59698902105859,35.21455826212363],[-82.59775510100107,35.214349633158335],[-82.59959369286317,35.2133899330109],[-82.60112585274813,35.21309784810562],[-82.60189193269059,35.21251367514179],[-82.60296444461022,35.21222158708389],[-82.604343388507,35.212346767808654],[-82.60464982048416,35.21284748877869],[-82.6041901725188,35.213223027479216],[-82.60352623656796,35.213223027479216],[-82.60342409257632,35.21397409966936],[-82.60270908462965,35.2141827295998],[-82.60321980459155,35.215058969453494],[-82.60403695652987,35.21485034177502],[-82.60500732445709,35.21522587121049],[-82.60403695652987,35.21618554965333],[-82.60373052455272,35.21697831893985],[-82.60444553249938,35.217103492329684],[-82.60526268443843,35.21727038988297],[-82.60618198036912,35.21693659443329],[-82.60699913230815,35.216811420786044],[-82.60730556428456,35.216268999416585],[-82.60730556428456,35.215810024657515],[-82.60848022019654,35.21526759659581],[-82.60873558017786,35.21472516491008],[-82.60807164422779,35.2137654692022],[-82.60848022019654,35.213473385648015],[-82.60924630013902,35.21364029066498],[-82.61072738802818,35.21222158708389],[-82.61108489200112,35.21272230882542],[-82.61200418793256,35.211720862253415],[-82.61251490789445,35.2120546791502],[-82.6124638358979,35.2102186692331],[-82.61200418793256,35.21005175718177],[-82.61266812388264,35.20900854908703],[-82.6136384918099,35.20905027766851]],"type":"LineString"}},{"type":"Feature","properties":{"name":"Lake Imaging Parking Lot","type":"Parking Lot"},"geometry":{"coordinates":[-82.615477083672,35.20921719177862],"type":"Point"},"id":1},{"type":"Feature","properties":{"name":"Jim Branch","type":"Singletrack"},"geometry":{"coordinates":[-82.61261705188684,35.207548035237025],"type":"Point"},"id":2},{"type":"Feature","properties":{"name":"Isaac Heath","type":"Singletrack"},"geometry":{"coordinates":[-82.60439446050357,35.20500250544917],"type":"Point"},"id":3},{"type":"Feature","properties":{"name":"Hilltop","type":"Singletrack"},"geometry":{"coordinates":[-82.61144239597485,35.198867868120715],"type":"Point"},"id":4},{"type":"Feature","properties":{"name":"Ridgeline","type":"Singletrack"},"geometry":{"coordinates":[-82.60373052455272,35.21693659443329],"type":"Point"},"id":5},{"type":"Feature","properties":{"name":"Hooker Creek","type":"Singletrack"},"geometry":{"coordinates":[-82.59423113326585,35.21051076449642],"type":"Point"},"id":6},{"type":"Feature","properties":{"name":"Buck Forest Road","type":"Gravel road"},"geometry":{"coordinates":[-82.60812271622437,35.19719849885375],"type":"Point"},"id":7}]}